{
  "type": "FeatureCollection",
  "columns": {
    "count": "Long<0, 4294967295>",
    "label": "Byte<0, 1>",
    "mean": "Float<-1.0, 1.0>",
    "system:index": "String"
  },
  "features": [
    {
      "type": "Feature",
      "geometry": {
        "geodesic": false,
        "type": "Polygon",
        "coordinates": [
          [
            [
              78.96281178939006,
              20.59980676931522
            ],
            [
              78.96281178939006,
              20.59801013874698
            ],
            [
              78.96299145244689,
              20.59801013874698
            ],
            [
              78.96299145244689,
              20.598728790974274
            ],
            [
              78.96317111550371,
              20.598728790974274
            ],
            [
              78.96317111550371,
              20.599627106258396
            ],
            [
              78.96299145244689,
              20.599627106258396
            ],
            [
              78.96299145244689,
              20.59980676931522
            ],
            [
              78.96281178939006,
              20.59980676931522
            ]
          ]
        ]
      },
      "id": "+439505+114657",
      "properties": {
        "count": 15,
        "label": 1,
        "mean": 0.16178729136784872
      }
    },
    {
      "type": "Feature",
      "geometry": {
        "geodesic": false,
        "type": "Polygon",
        "coordinates": [
          [
            [
              78.963889767731,
              20.594596540667325
            ],
            [
              78.963889767731,
              20.594416877610502
            ],
            [
              78.96406943078783,
              20.594416877610502
            ],
            [
              78.96406943078783,
              20.59423721455368
            ],
            [
              78.96424909384464,
              20.59423721455368
            ],
            [
              78.96424909384464,
              20.594596540667325
            ],
            [
              78.963889767731,
              20.594596540667325
            ]
          ]
        ]
      },
      "id": "+439512+114628",
      "properties": {
        "count": 3,
        "label": 1,
        "mean": 0.08696934829155605
      }
    },
    {
      "type": "Feature",
      "geometry": {
        "geodesic": false,
        "type": "Polygon",
        "coordinates": [
          [
            [
              78.96424909384464,
              20.593698225383207
            ],
            [
              78.96442875690147,
              20.593698225383207
            ],
            [
              78.96442875690147,
              20.59387788844003
            ],
            [
              78.96424909384464,
              20.59387788844003
            ],
            [
              78.96424909384464,
              20.593698225383207
            ]
          ]
        ]
      },
      "id": "+439513+114624",
      "properties": {
        "count": 1,
        "label": 1,
        "mean": 0.07428916543722153
      }
    },
    {
      "type": "Feature",
      "geometry": {
        "geodesic": false,
        "type": "Polygon",
        "coordinates": [
          [
            [
              78.96442875690147,
              20.600884747656163
            ],
            [
              78.9646084199583,
              20.600884747656163
            ],
            [
              78.9646084199583,
              20.601064410712986
            ],
            [
              78.96442875690147,
              20.601064410712986
            ],
            [
              78.96442875690147,
              20.600884747656163
            ]
          ]
        ]
      },
      "id": "+439514+114664",
      "properties": {
        "count": 1,
        "label": 1,
        "mean": 0.07551410049200058
      }
    },
    {
      "type": "Feature",
      "geometry": {
        "geodesic": false,
        "type": "Polygon",
        "coordinates": [
          [
            [
              78.96532707218559,
              20.595854182065093
            ],
            [
              78.96532707218559,
              20.594955866780975
            ],
            [
              78.96568639829924,
              20.594955866780975
            ],
            [
              78.96568639829924,
              20.595494855951443
            ],
            [
              78.96586606135607,
              20.595494855951443
            ],
            [
              78.96586606135607,
              20.59567451900827
            ],
            [
              78.96568639829924,
              20.59567451900827
            ],
            [
              78.96568639829924,
              20.595854182065093
            ],
            [
              78.96532707218559,
              20.595854182065093
            ]
          ]
        ]
      },
      "id": "+439520+114635",
      "properties": {
        "count": 11,
        "label": 1,
        "mean": 0.07708673043684526
      }
    },
    {
      "type": "Feature",
      "geometry": {
        "geodesic": false,
        "type": "Polygon",
        "coordinates": [
          [
            [
              78.96586606135607,
              20.59531519289462
            ],
            [
              78.9660457244129,
              20.59531519289462
            ],
            [
              78.9660457244129,
              20.595494855951443
            ],
            [
              78.96586606135607,
              20.595494855951443
            ],
            [
              78.96586606135607,
              20.59531519289462
            ]
          ]
        ]
      },
      "id": "+439522+114633",
      "properties": {
        "count": 1,
        "label": 1,
        "mean": 0.15493248403072357
      }
    },
    {
      "type": "Feature",
      "geometry": {
        "geodesic": false,
        "type": "Polygon",
        "coordinates": [
          [
            [
              78.9660457244129,
              20.60034575848569
            ],
            [
              78.9660457244129,
              20.600166095428868
            ],
            [
              78.96586606135607,
              20.600166095428868
            ],
            [
              78.96586606135607,
              20.59980676931522
            ],
            [
              78.9662253874697,
              20.59980676931522
            ],
            [
              78.9662253874697,
              20.599627106258396
            ],
            [
              78.96640505052653,
              20.599627106258396
            ],
            [
              78.96640505052653,
              20.59980676931522
            ],
            [
              78.96658471358336,
              20.59980676931522
            ],
            [
              78.96658471358336,
              20.59998643237204
            ],
            [
              78.96676437664019,
              20.59998643237204
            ],
            [
              78.96676437664019,
              20.600166095428868
            ],
            [
              78.96658471358336,
              20.600166095428868
            ],
            [
              78.96658471358336,
              20.60034575848569
            ],
            [
              78.9660457244129,
              20.60034575848569
            ]
          ]
        ]
      },
      "id": "+439525+114660",
      "properties": {
        "count": 13,
        "label": 1,
        "mean": 0.12199123352766036
      }
    },
    {
      "type": "Feature",
      "geometry": {
        "geodesic": false,
        "type": "Polygon",
        "coordinates": [
          [
            [
              78.97053730083348,
              20.597830475690156
            ],
            [
              78.97053730083348,
              20.597650812633333
            ],
            [
              78.97071696389031,
              20.597650812633333
            ],
            [
              78.97071696389031,
              20.597471149576506
            ],
            [
              78.97107629000396,
              20.597471149576506
            ],
            [
              78.97107629000396,
              20.597650812633333
            ],
            [
              78.97089662694714,
              20.597650812633333
            ],
            [
              78.97089662694714,
              20.597830475690156
            ],
            [
              78.97053730083348,
              20.597830475690156
            ]
          ]
        ]
      },
      "id": "+439549+114646",
      "properties": {
        "count": 4,
        "label": 1,
        "mean": 0.06850591581314802
      }
    },
    {
      "type": "Feature",
      "geometry": {
        "geodesic": false,
        "type": "Polygon",
        "coordinates": [
          [
            [
              78.97197460528808,
              20.59980676931522
            ],
            [
              78.9721542683449,
              20.59980676931522
            ],
            [
              78.9721542683449,
              20.59998643237204
            ],
            [
              78.97197460528808,
              20.59998643237204
            ],
            [
              78.97197460528808,
              20.59980676931522
            ]
          ]
        ]
      },
      "id": "+439556+114658",
      "properties": {
        "count": 1,
        "label": 1,
        "mean": 0.07050462812185287
      }
    },
    {
      "type": "Feature",
      "geometry": {
        "geodesic": false,
        "type": "Polygon",
        "coordinates": [
          [
            [
              78.97233393140172,
              20.599627106258396
            ],
            [
              78.97233393140172,
              20.5989084540311
            ],
            [
              78.97269325751537,
              20.5989084540311
            ],
            [
              78.97269325751537,
              20.599088117087923
            ],
            [
              78.9728729205722,
              20.599088117087923
            ],
            [
              78.9728729205722,
              20.599627106258396
            ],
            [
              78.97233393140172,
              20.599627106258396
            ]
          ]
        ]
      },
      "id": "+439560+114656",
      "properties": {
        "count": 11,
        "label": 1,
        "mean": 0.056729528375647285
      }
    }
  ]
}